TIANMU-1 07             
1 57399U 23101A   26065.57454230  .00008352  00000+0  29795-3 0  9991
2 57399  97.2728 118.5929 0004609 142.4105 217.7458 15.29118809145964
STARLINK-32689          
1 62440U 24251J   26068.88900707  .00024327  00000+0  83064-3 0  9992
2 62440  53.1590 334.0448 0001024  97.3363 262.7754 15.30206137 67986
